{
    "centers": [{
            "web_site": "http://www.cuniv-tissemsilt.dz/FR/index.html",
            "name_ar": "\u0627\u0644\u0645\u0631\u0643\u0632 \u0627\u0644\u062c\u0627\u0645\u0639\u064a \u0644\u062a\u064a\u0633\u0645\u0633\u064a\u0644\u062a \u0627\u0644\u0639\u0644\u0627\u0645\u0629 \u0623\u062d\u0645\u062f \u0628\u0646 \u064a\u0640\u0640\u062d\u064a \u0627\u0644\u0648\u0646\u0634\u0631\u064a\u0633\u064a",
            "name_fr": "Centre Universitaire de Tissemsilt- Ahmed ben yahia el-wancharissi",
            "name_en": "Centre Universitaire of Tissemsilt- Ahmed ben yahia el-wancharissi",
            "region_ar": "\u0627\u0644\u063a\u0631\u0628",
            "region_fr": "ouest",
            "region_en": "west"
        },
        {
            "web_site": "http://www.cuniv-aintemouchent.dz/",
            "name_ar": " \u0627\u0644\u0645\u0631\u0643\u0632 \u0627\u0644\u062c\u0627\u0645\u0639\u064a \u0644\u0639\u064a\u0646 \u062a\u064a\u0645\u0648\u0634\u0646\u062a - \u0628\u0644\u062d\u0627\u062c \u0628\u0648\u0634\u0639\u064a\u0628",
            "name_fr": "Centre Universitaire de A\u00efn T\u00e9mouchent - Belhadj Bouchaib",
            "name_en": "Centre Universitaire of A\u00efn Temouchent - Belhadj Bouchaib",
            "region_ar": "\u0627\u0644\u063a\u0631\u0628",
            "region_fr": "ouest",
            "region_en": "west"
        },
        {
            "web_site": "http://www.cu-relizane.dz/",
            "name_ar": "\u0627\u0644\u0645\u0631\u0643\u0632 \u0627\u0644\u062c\u0627\u0645\u0639\u064a \u063a\u0644\u064a\u0632\u0627\u0646 - \u0623\u062d\u0645\u062f \u0632\u0628\u0627\u0646\u0629",
            "name_fr": "Centre universitaire de R\u00e9lizane - Ahmed Zabana",
            "name_en": "Centre universitaire of Relizane - Ahmed Zabana",
            "region_ar": "\u0627\u0644\u063a\u0631\u0628",
            "region_fr": "ouest",
            "region_en": "west"
        },
        {
            "web_site": "http://www.cuniv-naama.dz/",
            "name_ar": "\u0627\u0644\u0645\u0631\u0643\u0632 \u0627\u0644\u062c\u0627\u0645\u0639\u064a \u0628\u0627\u0644\u0646\u0639\u0627\u0645\u0629 - \u0635\u0627\u0644\u062d\u064a \u0623\u062d\u0645\u062f \u0627\u0644\u0645\u062f\u0639\u0648 \u0639\u0644\u064a",
            "name_fr": "Centre universitaire  de Naama - Ahmed Salhi",
            "name_en": "Centre universitaire  of Naama - Ahmed Salhi",
            "region_ar": "\u0627\u0644\u063a\u0631\u0628",
            "region_fr": "ouest",
            "region_en": "west"
        },
        {
            "web_site": "http://www.cu-elbayadh.dz/",
            "name_ar": "\u0627\u0644\u0645\u0631\u0643\u0632 \u0627\u0644\u062c\u0627\u0645\u0639\u064a \u0628\u0627\u0644\u0628\u064a\u0636 - \u0646\u0648\u0631 \u0627\u0644\u0628\u0634\u064a\u0631",
            "name_fr": "Centre universitaire d'El Bayadh - Nour Bachir",
            "name_en": "Centre universitaire  of El Bayadh - Nour Bachir",
            "region_ar": "\u0627\u0644\u063a\u0631\u0628",
            "region_fr": "ouest",
            "region_en": "west"
        },
        {
            "web_site": "http://www.cuniv-tindouf.dz",
            "name_ar": "\u0627\u0644\u0645\u0631\u0643\u0632 \u0627\u0644\u062c\u0627\u0645\u0639\u064a \u0628\u062a\u0646\u062f\u0648\u0641 - \u0627\u0644\u0645\u062c\u0627\u0647\u062f \u0639\u0644\u064a \u0643\u0627\u0641\u064a ",
            "name_fr": "Centre universitaire de Tindouf-Ali Kafi",
            "name_en": "Centre universitaire of Tindouf-Ali Kafi",
            "region_ar": "\u0627\u0644\u063a\u0631\u0628",
            "region_fr": "ouest",
            "region_en": "west"
        },
        {
            "web_site": "http://maghnia.univ-tlemcen.dz/",
            "name_ar": "\u0627\u0644\u0645\u0631\u0643\u0632 \u0627\u0644\u062c\u0627\u0645\u0639\u064a \u0644\u0645\u063a\u0646\u064a\u0629",
            "name_fr": "Centre universitaire de Maghnia",
            "name_en": "Centre universitaire of Maghnia",
            "region_ar": "\u0627\u0644\u063a\u0631\u0628",
            "region_fr": "ouest",
            "region_en": "west"
        },
        {
            "web_site": "https://www.cu-tamanrasset.dz/",
            "name_ar": "\u0627\u0644\u0645\u0631\u0643\u0632 \u0627\u0644\u062c\u0627\u0645\u0639\u064a \u0644\u062a\u0645\u0646\u0631\u0627\u0633\u062a - \u0623\u0645\u064a\u0646 \u0627\u0644\u0639\u0642\u0627\u0644 \u0627\u0644\u062d\u0627\u062c \u0645\u0648\u0633\u0649 \u0622\u0642 \u0627\u062e\u0627\u0645\u0648\u0643",
            "name_fr": "Centre universitaire de Tamanrasset - Amine Elokkal El Hadj Moussa Eg Akhamouk",
            "name_en": "Centre universitaire of Tamanrasset - Amine Elokkal El Hadj Moussa Eg Akhamouk",
            "region_ar": "\u0627\u0644\u0648\u0633\u0637",
            "region_fr": "centre",
            "region_en": "center"
        },
        {
            "web_site": "http://www.cu-tipaza.dz/index.php/fr/",
            "name_ar": "\u0627\u0644\u0645\u0631\u0643\u0632 \u0627\u0644\u062c\u0627\u0645\u0639\u064a \u0628\u062a\u064a\u0628\u0627\u0632\u0629 - \u0639\u0628\u062f \u0627\u0644\u0644\u0647 \u0645\u0631\u0633\u0644\u064a",
            "name_fr": "Centre universitaire de Tipaza - Abdallah Morsli",
            "name_en": "Centre universitaire of Tipaza - Abdallah Morsli",
            "region_ar": "\u0627\u0644\u0648\u0633\u0637",
            "region_fr": "centre",
            "region_en": "center"
        },
        {
            "web_site": "http://www.cuillizi.dz/",
            "name_ar": "\u0627\u0644\u0645\u0631\u0643\u0632 \u0627\u0644\u062c\u0627\u0645\u0639\u064a \u0625\u0644\u064a\u0632\u064a \u0627\u0644\u0645\u0642\u0627\u0648\u0645 \u0627\u0644\u0634\u064a\u062e \u0622\u0645\u0648\u062f \u0628\u0646 \u0645\u062e\u062a\u0627\u0631",
            "name_fr": "Centre Universitaire d'Illizi-Cheikh Amoud ben Mokhtar",
            "name_en": "Centre Universitaire  of Illizi-Cheikh Amoud ben Mokhtar",
            "region_ar": "\u0627\u0644\u0648\u0633\u0637",
            "region_fr": "centre",
            "region_en": "center"
        },
        {
            "web_site": "https://www.cu-aflou.dz/",
            "name_ar": "\u0627\u0644\u0645\u0631\u0643\u0632 \u0627\u0644\u062c\u0627\u0645\u0639\u064a \u0622\u0641\u0644\u0648",
            "name_fr": "Centre universitaire d'Aflou",
            "name_en": "Centre universitaire  of Aflou",
            "region_ar": "\u0627\u0644\u0648\u0633\u0637",
            "region_fr": "centre",
            "region_en": "center"
        },
        {
            "web_site": "http://www.centre-univ-mila.dz/ar/index.php",
            "name_ar": " \u0627\u0644\u0645\u0631\u0643\u0632 \u0627\u0644\u062c\u0627\u0645\u0639\u064a \u0644\u0645\u064a\u0644\u0629 - \u0639\u0628\u062f \u0627\u0644\u062d\u0641\u064a\u0638 \u0628\u0648\u0627\u0644\u0635\u0648\u0641",
            "name_fr": " Centre Universitaire de Mila - Abdelhafid Boussouf",
            "name_en": " Centre Universitaire of Mila - Abdelhafid Boussouf",
            "region_ar": "\u0627\u0644\u0634\u0631\u0642",
            "region_fr": "est",
            "region_en": "east"
        },
        {
            "web_site": "http://centre-barika.univ-batna.dz/index.php",
            "name_ar": "\u0627\u0644\u0645\u0631\u0643\u0632 \u0627\u0644\u062c\u0627\u0645\u0639\u064a \u0628\u0631\u064a\u0643\u0629 - \u0623\u062d\u0645\u062f \u062d\u0645\u0648\u062f\u0629 \u0628\u0646 \u0639\u0628\u062f \u0627\u0644\u0631\u0632\u0627\u0642 \u0627\u0644\u0645\u062f\u0639\u0648 \u0633\u064a \u0627\u0644\u062d\u0648\u0627\u0633",
            "name_fr": "Centre Universitaire de Barika - Si El Haou\u00e8s",
            "name_en": "Centre Universitaire of Barika - Si El Haoues",
            "region_ar": "\u0627\u0644\u0634\u0631\u0642",
            "region_fr": "est",
            "region_en": "east"
        }
    ]
}