{
    "schools": [{
            "web_site": "http://ens.univ-mosta.dz/",
            "name_ar": " \u0627\u0644\u0645\u062f\u0631\u0633\u0629 \u0627\u0644\u0639\u0644\u064a\u0627 \u0644\u0644\u0623\u0633\u0627\u062a\u0630\u0629 \u0628\u0645\u0633\u062a\u063a\u0627\u0646\u0645",
            "name_fr": "Ecole Normale Sup\u00e9rieure de Mostaganem",
            "name_en": "Ecole Normale Superieure of Mostaganem",
            "region_ar": "\u0627\u0644\u063a\u0631\u0628",
            "region_fr": "ouest",
            "region_en": "west"
        },
        {
            "web_site": "http://ensb.univ-bechar.dz/ensb/?page_id=41",
            "name_ar": "\u0627\u0644\u0645\u062f\u0631\u0633\u0629 \u0627\u0644\u0639\u0644\u064a\u0627 \u0644\u0644\u0623\u0633\u0627\u062a\u0630\u0629 \u0628\u0628\u0634\u0627\u0631",
            "name_fr": "Ecole Normale Sup\u00e9rieure d'Oran",
            "name_en": "Ecole Normale Superieure  of Oran",
            "region_ar": "\u0627\u0644\u063a\u0631\u0628",
            "region_fr": "ouest",
            "region_en": "west"
        },
        {
            "web_site": "http://www.ensb.dz/",
            "name_ar": "\u0627\u0644\u0645\u062f\u0631\u0633\u0629 \u0627\u0644\u0639\u0644\u064a\u0627 \u0644\u0644\u0623\u0633\u0627\u062a\u0630\u0629 \u0628\u0648\u0632\u0631\u064a\u0639\u0629 \u0627\u0644\u0634\u064a\u062e \u0645\u0628\u0627\u0631\u0643 \u0628\u0646 \u0645\u062d\u0645\u062f \u0625\u0628\u0631\u0627\u0647\u064a\u0645\u064a \u0627\u0644\u0645\u064a\u0644\u064a \u0627\u0644\u062c\u0632\u0627\u0626\u0631\u064a",
            "name_fr": "Ecole normale sup\u00e9rieure de Bouzar\u00e9ah - Cheikh Mubarak Ben Mohamed Brahimi El Mili",
            "name_en": "Ecole normale superieure of Bouzareah - Cheikh Mubarak Ben Mohamed Brahimi El Mili",
            "region_ar": "\u0627\u0644\u0648\u0633\u0637",
            "region_fr": "centre",
            "region_en": "center"
        },
        {
            "web_site": "http://www.ens-kouba.dz",
            "name_ar": "\u0627\u0644\u0645\u062f\u0631\u0633\u0629 \u0627\u0644\u0639\u0644\u064a\u0627 \u0644\u0644\u0623\u0633\u0627\u062a\u0630\u0629 \u0627\u0644\u0642\u0628\u0629 \u0627\u0644\u0634\u064a\u062e \u0645\u062d\u0645\u062f \u0627\u0644\u0628\u0634\u064a\u0631 \u0627\u0644\u0625\u0628\u0631\u0627\u0647\u064a\u0645\u064a",
            "name_fr": "Ecole normale sup\u00e9rieure de Kouba - Mohamed Bachir El Ibrahimi",
            "name_en": "Ecole normale superieure of Kouba - Mohamed Bachir El Ibrahimi",
            "region_ar": "\u0627\u0644\u0648\u0633\u0637",
            "region_fr": "centre",
            "region_en": "center"
        },
        {
            "web_site": "https://ensl.joomla.com/index.php/ar/",
            "name_ar": "\u0627\u0644\u0645\u062f\u0631\u0633\u0629 \u0627\u0644\u0639\u0644\u064a\u0627 \u0644\u0644\u0623\u0633\u0627\u062a\u0630\u0629 \u0628\u0627\u0644\u0623\u063a\u0648\u0627\u0637 - \u0637\u0627\u0644\u0628 \u0639\u0628\u062f \u0627\u0644\u0631\u062d\u0645\u0627\u0646",
            "name_fr": "Ecole normale sup\u00e9rieure de Laghouat - Taleb Abderrahmane",
            "name_en": "Ecole normale superieure of Laghouat - Taleb Abderrahmane",
            "region_ar": "\u0627\u0644\u0648\u0633\u0637",
            "region_fr": "centre",
            "region_en": "center"
        },
        {
            "web_site": "http://www.ens-constantine.dz/",
            "name_ar": "\u0627\u0644\u0645\u062f\u0631\u0633\u0629 \u0627\u0644\u0639\u0644\u064a\u0627 \u0644\u0644\u0623\u0633\u0627\u062a\u0630\u0629 \u0627\u0644\u0622\u062f\u0627\u0628 \u0648\u0627\u0644\u0639\u0644\u0648\u0645 \u0627\u0644\u0627\u0646\u0633\u0627\u0646\u064a\u0629 \u0642\u0633\u0646\u0637\u064a\u0646\u0629 \u0627\u0644\u0643\u0627\u062a\u0628\u0629 \u0622\u0633\u064a\u0627 \u062c\u0628\u0627\u0631",
            "name_fr": "Ecole normale sup\u00e9rieure de Constantine -Assia Djebar",
            "name_en": "Ecole normale superieure of Constantine -Assia Djebar",
            "region_ar": "\u0627\u0644\u0634\u0631\u0642",
            "region_fr": "est",
            "region_en": "east"
        },
        {
            "web_site": "http://www.ens-setif.dz/",
            "name_ar": "\u0627\u0644\u0645\u062f\u0631\u0633\u0629 \u0627\u0644\u0639\u0644\u064a\u0627 \u0644\u0644\u0623\u0633\u0627\u062a\u0630\u0629 \u0633\u0637\u064a\u0641 \u0627\u0644\u0645\u062c\u0627\u0647\u062f \u0645\u0633\u0639\u0648\u062f \u0632\u063a\u0627\u0631",
            "name_fr": "Ecole normale sup\u00e9rieure d'enseignement technologique de Skikda",
            "name_en": "Ecole normale superieure  of enseignement technologique of Skikda",
            "region_ar": "\u0627\u0644\u0634\u0631\u0642",
            "region_fr": "est",
            "region_en": "east"
        },
        {
            "web_site": "http://www.ens-bousaada.dz/ar/",
            "name_ar": "\u0627\u0644\u0645\u062f\u0631\u0633\u0629 \u0627\u0644\u0639\u0644\u064a\u0627 \u0644\u0644\u0623\u0633\u0627\u062a\u0630\u0629 \u0628\u0648\u0633\u0639\u0627\u062f\u0629",
            "name_fr": "Ecole normale sup\u00e9rieure de setif - Messaoud Zeghar",
            "name_en": "Ecole normale superieure of setif - Messaoud Zeghar",
            "region_ar": "\u0627\u0644\u0634\u0631\u0642",
            "region_fr": "est",
            "region_en": "east"
        },
        {
            "web_site": "http://ens-ouargla.dz/",
            "name_ar": "\u0627\u0644\u0645\u062f\u0631\u0633\u0629 \u0627\u0644\u0639\u0644\u064a\u0627 \u0644\u0644\u0623\u0633\u0627\u062a\u0630\u0629 \u0648\u0631\u0642\u0644\u0629",
            "name_fr": "Ecole normale sup\u00e9rieure de Bou Sa\u00e2da",
            "name_en": "Ecole normale superieure of Bou Sa\u00e2da",
            "region_ar": "\u0627\u0644\u0634\u0631\u0642",
            "region_fr": "est",
            "region_en": "east"
        }
    ]
}